NORAD_CAT_ID,OBJECT_NAME,OBJECT_TYPE,EPOCH,MEAN_MOTION,ECCENTRICITY,INCLINATION,RA_OF_ASC_NODE,ARG_OF_PERICENTER,MEAN_ANOMALY,BSTAR,MEAN_MOTION_DOT,MEAN_MOTION_DDOT,TLE_LINE0,TLE_LINE1,TLE_LINE2,SEMIMAJOR_AXIS,PERIOD,APOGEE,PERIGEE,DECAYED
49737.0,STARLINK-3225,PAYLOAD,2022-12-11 05:35:06,15.08851409,0.0002433,53.2175,66.3599,45.8287,314.2905,1.486e-05,-5.2e-07,0.0,0 STARLINK-3225,1 49737U 21115P   22345.23270905 -.00000052  00000-0  14860-4 0  9995,2 49737  53.2175  66.3599 0002433  45.8287 314.2905 15.08851409 57837,6917.846,95.437,541.394,538.0269999999998,0.0
49737.0,STARLINK-3225,PAYLOAD,2022-12-11 11:56:38,15.08859006,0.0002292,53.2167,65.1718,36.2403,323.8744,0.00019545,2.825e-05,0.0,0 STARLINK-3225,1 49737U 21115P   22345.49766738  .00002825  00000-0  19545-3 0  9990,2 49737  53.2167  65.1718 0002292  36.2403 323.8744 15.08859006 56764,6917.821999999999,95.436,541.273,538.102,0.0
49737.0,STARLINK-3225,PAYLOAD,2022-12-11 16:42:48,15.08846033,0.0002595,53.216,64.2818,31.8906,328.2243,0.00054097,8.333e-05,0.0,0 STARLINK-3225,1 49737U 21115P   22345.69640014  .00008333  00000-0  54097-3 0  9991,2 49737  53.2160  64.2818 0002595  31.8906 328.2243 15.08846033 57909,6917.861999999999,95.437,541.5219999999998,537.932,0.0
49737.0,STARLINK-3225,PAYLOAD,2022-12-12 11:47:26,15.08844776,0.000188,53.2175,60.7096,38.238,321.8745,7.0824e-05,8.39e-06,0.0,0 STARLINK-3225,1 49737U 21115P   22346.49127519  .00000839  00000-0  70824-4 0  9990,2 49737  53.2175  60.7096 0001880  38.2380 321.8745 15.08844776 58029,6917.866,95.437,541.031,538.43,0.0
49737.0,STARLINK-3225,PAYLOAD,2022-12-12 16:33:35,15.08842624,0.0002059,53.2172,59.8181,35.3902,324.7227,5.3341e-05,5.61e-06,0.0,0 STARLINK-3225,1 49737U 21115P   22346.68999639  .00000561  00000-0  53341-4 0  9998,2 49737  53.2172  59.8181 0002059  35.3902 324.7227 15.08842624 56943,6917.871999999999,95.437,541.1619999999998,538.313,0.0
49737.0,STARLINK-3225,PAYLOAD,2022-12-13 13:13:36,15.08845172,0.0002116,53.2172,55.9534,35.7215,324.3918,-4.0606e-05,-9.35e-06,0.0,0 STARLINK-3225,1 49737U 21115P   22347.55111330 -.00000935  00000-0 -40606-4 0  9996,2 49737  53.2172  55.9534 0002116  35.7215 324.3918 15.08845172 57076,6917.865,95.437,541.193,538.266,0.0
49737.0,STARLINK-3225,PAYLOAD,2022-12-13 14:48:59,15.08843971,0.0002169,53.2174,55.6566,35.177,324.9365,-4.1903e-05,-9.55e-06,0.0,0 STARLINK-3225,1 49737U 21115P   22347.61735393 -.00000955  00000-0 -41903-4 0  9997,2 49737  53.2174  55.6566 0002169  35.1770 324.9365 15.08843971 58199,6917.868,95.437,541.234,538.2330000000002,0.0
49737.0,STARLINK-3225,PAYLOAD,2022-12-14 09:53:37,15.08840331,0.0002213,53.2173,52.0875,32.0724,328.0402,9.3079e-05,1.193e-05,0.0,0 STARLINK-3225,1 49737U 21115P   22348.41223513  .00001193  00000-0  93079-4 0  9996,2 49737  53.2173  52.0875 0002213  32.0724 328.0402 15.08840331 57202,6917.879,95.438,541.275,538.2130000000002,0.0
49737.0,STARLINK-3225,PAYLOAD,2022-12-14 21:01:19,15.088396,0.000234,53.217,50.0064,29.6884,330.4240000000001,5.284e-05,5.53e-06,0.0,0 STARLINK-3225,1 49737U 21115P   22348.87591571  .00000553  00000-0  52840-4 0  9998,2 49737  53.2170  50.0064 0002340  29.6884 330.4240 15.08839600 57278,6917.882,95.438,541.365,538.128,0.0
49737.0,STARLINK-3225,PAYLOAD,2022-12-15 12:55:10,15.08840733,0.0002209,53.2174,47.0325,41.3414,318.7745,5.5956e-05,6.02e-06,0.0,0 STARLINK-3225,1 49737U 21115P   22349.53831741  .00000602  00000-0  55956-4 0  9994,2 49737  53.2174  47.0325 0002209  41.3414 318.7745 15.08840733 57371,6917.878000000002,95.438,541.271,538.215,0.0
49737.0,STARLINK-3225,PAYLOAD,2022-12-15 16:05:56,15.08839429,0.0002273,53.2174,46.4377,29.9354,330.1768,8.8676e-05,1.123e-05,0.0,0 STARLINK-3225,1 49737U 21115P   22349.67079769  .00001123  00000-0  88676-4 0  9997,2 49737  53.2174  46.4377 0002273  29.9354 330.1768 15.08839429 57392,6917.882,95.438,541.32,538.175,0.0
49737.0,STARLINK-3225,PAYLOAD,2022-12-15 20:52:07,15.08817557,0.0001941,53.2179,45.5459,26.5689,333.5403,-8.5348e-05,-1.645e-05,0.0,0 STARLINK-3225,1 49737U 21115P   22349.86953565 -.00001645  00000-0 -85348-4 0  9997,2 49737  53.2179  45.5459 0001941  26.5689 333.5403 15.08817557 58531,6917.949000000001,95.439,541.1569999999998,538.471,0.0
49737.0,STARLINK-3225,PAYLOAD,2022-12-16 12:45:58,15.08830999,0.000229,53.2169,42.5719,36.3999,323.7149,1.4611e-05,-5.6e-07,0.0,0 STARLINK-3225,1 49737U 21115P   22350.53192818 -.00000056  00000-0  14611-4 0  9998,2 49737  53.2169  42.5719 0002290  36.3999 323.7149 15.08830999 58631,6917.908,95.438,541.357,538.189,0.0
49737.0,STARLINK-3225,PAYLOAD,2022-12-17 12:36:46,15.08849447,0.0002246,53.2164,38.1115,41.7754,318.341,0.00089445,0.0001398,0.0,0 STARLINK-3225,1 49737U 21115P   22351.52553262  .00013980  00000-0  89445-3 0  9997,2 49737  53.2164  38.1115 0002246  41.7754 318.3410 15.08849447 57679,6917.852,95.437,541.27,538.163,0.0
49737.0,STARLINK-3225,PAYLOAD,2022-12-17 20:33:42,15.08842505,0.0002568,53.2163,36.6243,50.6562,309.4658,0.00046273,7.084e-05,0.0,0 STARLINK-3225,1 49737U 21115P   22351.85673613  .00007084  00000-0  46273-3 0  9996,2 49737  53.2163  36.6243 0002568  50.6562 309.4658 15.08842505 57725,6917.873000000001,95.437,541.514,537.961,0.0
49737.0,STARLINK-3225,PAYLOAD,2022-12-18 02:55:14,15.08846249,0.000269,53.2163,35.4352,50.0485,310.0743,0.00050642,7.782e-05,0.0,0 STARLINK-3225,1 49737U 21115P   22352.12169621  .00007782  00000-0  50642-3 0  9996,2 49737  53.2163  35.4352 0002690  50.0485 310.0743 15.08846249 58876,6917.861,95.437,541.587,537.865,0.0
49737.0,STARLINK-3225,PAYLOAD,2022-12-18 12:27:33,15.08845855,0.0002239,53.2166,33.6509,47.0157,313.1023,0.00044602,6.819e-05,0.0,0 STARLINK-3225,1 49737U 21115P   22352.51913472  .00006819  00000-0  44602-3 0  9999,2 49737  53.2166  33.6509 0002239  47.0157 313.1023 15.08845855 57825,6917.861999999999,95.437,541.276,538.179,0.0
49737.0,STARLINK-3225,PAYLOAD,2022-12-18 20:24:29,15.08841499,0.0002286,53.2163,32.1638,46.4534,313.6648,0.00019787,2.862e-05,0.0,0 STARLINK-3225,1 49737U 21115P   22352.85033571  .00002862  00000-0  19787-3 0  9999,2 49737  53.2163  32.1638 0002286  46.4534 313.6648 15.08841499 57876,6917.876,95.437,541.322,538.159,0.0
49737.0,STARLINK-3225,PAYLOAD,2022-12-19 09:07:33,15.08848732,0.0002275,53.2165,29.7846,45.5289,314.5889,0.00030424,4.558e-05,0.0,0 STARLINK-3225,1 49737U 21115P   22353.38025310  .00004558  00000-0  30424-3 0  9995,2 49737  53.2165  29.7846 0002275  45.5289 314.5889 15.08848732 57959,6917.854,95.437,541.293,538.145,0.0
49737.0,STARLINK-3225,PAYLOAD,2022-12-19 13:53:42,15.08859821,0.0002291,53.2167,28.8924,50.0768,310.0426,0.00046575,7.136e-05,0.0,0 STARLINK-3225,1 49737U 21115P   22353.57896848  .00007136  00000-0  46575-3 0  9997,2 49737  53.2167  28.8924 0002291  50.0768 310.0426 15.08859821 57981,6917.82,95.436,541.27,538.1,0.0
49737.0,STARLINK-3225,PAYLOAD,2022-12-20 12:09:06,15.08854465,0.0002161,53.2168,24.7297,52.9309,307.1881,0.00034284,5.175e-05,0.0,0 STARLINK-3225,1 49737U 21115P   22354.50632844  .00005175  00000-0  34284-3 0  9990,2 49737  53.2168  24.7297 0002161  52.9309 307.1881 15.08854465 58126,6917.8359999999975,95.437,541.196,538.206,0.0
49737.0,STARLINK-3225,PAYLOAD,2022-12-20 13:44:29,15.08856202,0.000216,53.2168,24.4324,52.9553,307.1636,0.00037687,5.717e-05,0.0,0 STARLINK-3225,1 49737U 21115P   22354.57256756  .00005717  00000-0  37687-3 0  9993,2 49737  53.2168  24.4324 0002160  52.9553 307.1636 15.08856202 59247,6917.831,95.437,541.19,538.202,0.0
49737.0,STARLINK-3225,PAYLOAD,2022-12-21 04:02:58,15.08830319,0.0002018,53.2168,21.7554,62.3893,297.7304,-2.669300000000001e-05,-7.13e-06,0.0,0 STARLINK-3225,1 49737U 21115P   22355.16873660 -.00000713  00000-0 -26693-4 0  9997,2 49737  53.2168  21.7554 0002018  62.3893 297.7304 15.08830319 59333,6917.91,95.438,541.1709999999998,538.379,0.0
49737.0,STARLINK-3225,PAYLOAD,2022-12-21 11:59:54,15.08839254,0.0002073,53.2165,20.2701,60.2892,299.8306,0.001025,0.00016062,0.0,0 STARLINK-3225,1 49737U 21115P   22355.49994009  .00016062  00000-0  10250-2 0  9996,2 49737  53.2165  20.2701 0002073  60.2892 299.8306 15.08839254 58279,6917.8830000000025,95.438,541.182,538.314,0.0
49737.0,STARLINK-3225,PAYLOAD,2022-12-21 13:35:17,15.08842752,0.0002018,53.2164,19.9726,59.1694,300.9497,0.0010895999999999,0.00017097,0.0,0 STARLINK-3225,1 49737U 21115P   22355.56617982  .00017097  00000-0  10896-2 0  9991,2 49737  53.2164  19.9726 0002018  59.1694 300.9497 15.08842752 59392,6917.871999999999,95.437,541.133,538.341,0.0
49737.0,STARLINK-3225,PAYLOAD,2022-12-22 08:39:54,15.08861691,0.0001992,53.2162,16.4044,61.8006,298.3187,0.00082081,0.00012807,0.0,0 STARLINK-3225,1 49737U 21115P   22356.36105303  .00012807  00000-0  82081-3 0  9999,2 49737  53.2162  16.4044 0001992  61.8006 298.3187 15.08861691 58402,6917.814,95.436,541.057,538.3009999999998,0.0
49737.0,STARLINK-3225,PAYLOAD,2022-12-22 18:12:13,15.08854177,0.0001811,53.2162,14.6201,54.9302,305.186,0.00037931,5.756e-05,0.0,0 STARLINK-3225,1 49737U 21115P   22356.75849191  .00005756  00000-0  37931-3 0  9991,2 49737  53.2162  14.6201 0001811  54.9302 305.1860 15.08854177 59574,6917.837,95.437,540.955,538.4490000000002,0.0
49737.0,STARLINK-3225,PAYLOAD,2022-12-23 10:06:05,15.08845325,0.0001981,53.2163,11.6472,70.6583,289.4623,0.0001567,2.207e-05,0.0,0 STARLINK-3225,1 49737U 21115P   22357.42089194  .00002207  00000-0  15670-3 0  9999,2 49737  53.2163  11.6472 0001981  70.6583 289.4623 15.08845325 59673,6917.864000000001,95.437,541.1,538.359,0.0
49737.0,STARLINK-3225,PAYLOAD,2022-12-23 18:03:01,15.08838284,0.0001878,53.2158,10.1591,60.7491,299.3689,-2.8297e-05,-7.38e-06,0.0,0 STARLINK-3225,1 49737U 21115P   22357.75209559 -.00000738  00000-0 -28297-4 0  9993,2 49737  53.2158  10.1591 0001878  60.7491 299.3689 15.08838284 58617,6917.886,95.438,541.05,538.451,0.0
